STARLINK-11294 [DTC]    
1 61054U 24164E   24266.91668981 -.00539097  00000+0 -24614-2 0  9994
2 61054  53.1680  58.9718 0001298  62.5381 271.4938 15.84357496  2709
STARLINK-11268 [DTC]    
1 61055U 24164F   24266.91668981 -.00506070  00000+0 -22335-2 0  9998
2 61055  53.1680  58.9495 0001070  54.8323 289.9725 15.84983798  2764
STARLINK-11156 [DTC]    
1 61056U 24164G   24266.91668981 -.00480801  00000+0 -20585-2 0  9997
2 61056  53.1675  58.9302 0001239  60.7290 293.6201 15.85548689  2614
STARLINK-11231 [DTC]    
1 61057U 24164H   24267.25002315 -.00452965  00000+0 -19186-2 0  9994
2 61057  53.1684  57.2260 0001050  81.6132  26.1658 15.85704487  2714
STARLINK-11299 [DTC]    
1 61058U 24164J   24267.25002315 -.00431075  00000+0 -17795-2 0  9998
2 61058  53.1684  57.2083 0000921  90.0023  26.3232 15.86180046  2807
STARLINK-11154 [DTC]    
1 61059U 24164K   24267.25002315 -.00414843  00000+0 -16734-2 0  9995
2 61059  53.1683  57.1903 0000972  84.9023  40.1460 15.86611922  2815
STARLINK-11297 [DTC]    
1 61060U 24164L   24267.25002315 -.00402614  00000+0 -15900-2 0  9994
2 61060  53.1682  57.1742 0000568 103.0918  29.7487 15.87015099  2652
STARLINK-11233 [DTC]    
1 61061U 24164M   24266.91668981 -.00394719  00000+0 -15065-2 0  9992
2 61061  53.1678  58.8473 0000841  62.7116 331.5057 15.87683935  2761
STARLINK-11236 [DTC]    
1 61062U 24164N   24267.25002315 -.00372356  00000+0 -14139-2 0  9998
2 61062  53.1682  57.1429 0000932  74.5258  73.2255 15.87733949  2658
STARLINK-32350          
1 61063U 24164P   24266.91668981 -.00885803  00000+0 -47640-2 0  9997
2 61063  53.1671  58.9398 0001243  62.1311 286.8265 15.81758402  2715
STARLINK-32378          
1 61064U 24164Q   24266.58335648 -.00963293  00000+0 -50583-2 0  9992
2 61064  53.1674  60.5995 0001118  84.4178 170.6497 15.82462869  2661
STARLINK-32321          
1 61065U 24164R   24267.25002315 -.00887945  00000+0 -49291-2 0  9993
2 61065  53.1676  57.2606 0001075  59.2321  31.1331 15.81089129  2816
STARLINK-32381          
1 61066U 24164S   24267.25002315 -.00915558  00000+0 -51014-2 0  9992
2 61066  53.1676  57.2495 0001003  76.2374  19.4486 15.81080366  2769
STARLINK-32368          
1 61067U 24164T   24266.91668981 -.00936609  00000+0 -50663-2 0  9991
2 61067  53.1671  58.9172 0001135  62.9116 296.9649 15.81765844  2716
STARLINK-32385          
1 61068U 24164U   24266.91668981 -.00975810  00000+0 -53055-2 0  9997
2 61068  53.1671  58.9001 0001057  52.5330 315.6029 15.81757742  2757
STARLINK-32380          
1 61069U 24164V   24266.91668981 -.00959682  00000+0 -52051-2 0  9992
2 61069  53.1672  58.9063 0001077  51.6040 313.5570 15.81768053  2718
STARLINK-32375          
1 61070U 24164W   24266.91668981 -.00949216  00000+0 -51438-2 0  9994
2 61070  53.1673  58.9115 0001128  49.6340 313.1257 15.81759559  2759
